[{"OBJECT_NAME":"STARLINK-31962","OBJECT_ID":"2024-106Q","EPOCH":"2025-11-24T23:15:30.804192","MEAN_MOTION":15.27591765,"ECCENTRICITY":7.36e-5,"INCLINATION":42.9982,"RA_OF_ASC_NODE":204.2305,"ARG_OF_PERICENTER":246.0506,"MEAN_ANOMALY":114.0268,"EPHEMERIS_TYPE":0,"CLASSIFICATION_TYPE":"U","NORAD_CAT_ID":59936,"ELEMENT_SET_NO":999,"REV_AT_EPOCH":8450,"BSTAR":0.00013069,"MEAN_MOTION_DOT":3.337e-5,"MEAN_MOTION_DDOT":0},{"OBJECT_NAME":"STARLINK-31879","OBJECT_ID":"2024-106R","EPOCH":"2025-11-25T01:04:29.074080","MEAN_MOTION":15.27580697,"ECCENTRICITY":9.79e-5,"INCLINATION":43.0013,"RA_OF_ASC_NODE":203.939,"ARG_OF_PERICENTER":281.1553,"MEAN_ANOMALY":78.9188,"EPHEMERIS_TYPE":0,"CLASSIFICATION_TYPE":"U","NORAD_CAT_ID":59937,"ELEMENT_SET_NO":999,"REV_AT_EPOCH":8456,"BSTAR":3.0178e-5,"MEAN_MOTION_DOT":5.69e-6,"MEAN_MOTION_DDOT":0},{"OBJECT_NAME":"STARLINK-31876","OBJECT_ID":"2024-106S","EPOCH":"2025-11-25T00:07:07.769856","MEAN_MOTION":15.27594478,"ECCENTRICITY":7.93e-5,"INCLINATION":42.9975,"RA_OF_ASC_NODE":203.6371,"ARG_OF_PERICENTER":299.2379,"MEAN_ANOMALY":60.8394,"EPHEMERIS_TYPE":0,"CLASSIFICATION_TYPE":"U","NORAD_CAT_ID":59938,"ELEMENT_SET_NO":999,"REV_AT_EPOCH":8452,"BSTAR":0.00019703,"MEAN_MOTION_DOT":5.166e-5,"MEAN_MOTION_DDOT":0},{"OBJECT_NAME":"STARLINK-31955","OBJECT_ID":"2024-106T","EPOCH":"2025-11-25T01:30:09.839232","MEAN_MOTION":15.27590385,"ECCENTRICITY":0.000259,"INCLINATION":43.0027,"RA_OF_ASC_NODE":203.2074,"ARG_OF_PERICENTER":241.2278,"MEAN_ANOMALY":118.8314,"EPHEMERIS_TYPE":0,"CLASSIFICATION_TYPE":"U","NORAD_CAT_ID":59939,"ELEMENT_SET_NO":999,"REV_AT_EPOCH":8456,"BSTAR":5.618e-5,"MEAN_MOTION_DOT":1.284e-5,"MEAN_MOTION_DDOT":0},{"OBJECT_NAME":"STARLINK-31946","OBJECT_ID":"2024-106U","EPOCH":"2025-11-25T00:58:55.279776","MEAN_MOTION":15.27584111,"ECCENTRICITY":9.2e-5,"INCLINATION":43.0024,"RA_OF_ASC_NODE":203.9093,"ARG_OF_PERICENTER":286.9388,"MEAN_ANOMALY":73.1362,"EPHEMERIS_TYPE":0,"CLASSIFICATION_TYPE":"U","NORAD_CAT_ID":59940,"ELEMENT_SET_NO":999,"REV_AT_EPOCH":7514,"BSTAR":2.0826e-5,"MEAN_MOTION_DOT":3.11e-6,"MEAN_MOTION_DDOT":0},{"OBJECT_NAME":"STARLINK-31948","OBJECT_ID":"2024-106V","EPOCH":"2025-11-25T00:50:23.314848","MEAN_MOTION":15.27553104,"ECCENTRICITY":0.0001944,"INCLINATION":43.002,"RA_OF_ASC_NODE":200.3048,"ARG_OF_PERICENTER":265.8588,"MEAN_ANOMALY":94.2042,"EPHEMERIS_TYPE":0,"CLASSIFICATION_TYPE":"U","NORAD_CAT_ID":59941,"ELEMENT_SET_NO":999,"REV_AT_EPOCH":8455,"BSTAR":-6.4397e-5,"MEAN_MOTION_DOT":-2.032e-5,"MEAN_MOTION_DDOT":0},{"OBJECT_NAME":"STARLINK-31900","OBJECT_ID":"2024-106W","EPOCH":"2025-11-25T01:15:28.346688","MEAN_MOTION":15.27554756,"ECCENTRICITY":0.0001203,"INCLINATION":43.0021,"RA_OF_ASC_NODE":203.1409,"ARG_OF_PERICENTER":299.5105,"MEAN_ANOMALY":60.5626,"EPHEMERIS_TYPE":0,"CLASSIFICATION_TYPE":"U","NORAD_CAT_ID":59942,"ELEMENT_SET_NO":999,"REV_AT_EPOCH":8452,"BSTAR":0.0001635,"MEAN_MOTION_DOT":4.236e-5,"MEAN_MOTION_DDOT":0},{"OBJECT_NAME":"STARLINK-31973","OBJECT_ID":"2024-106X","EPOCH":"2025-11-25T00:38:34.357920","MEAN_MOTION":15.275838,"ECCENTRICITY":8.96e-5,"INCLINATION":43.0003,"RA_OF_ASC_NODE":203.8074,"ARG_OF_PERICENTER":279.0808,"MEAN_ANOMALY":80.9942,"EPHEMERIS_TYPE":0,"CLASSIFICATION_TYPE":"U","NORAD_CAT_ID":59943,"ELEMENT_SET_NO":999,"REV_AT_EPOCH":8451,"BSTAR":2.0451e-5,"MEAN_MOTION_DOT":3.01e-6,"MEAN_MOTION_DDOT":0},{"OBJECT_NAME":"STARLINK-31966","OBJECT_ID":"2024-106Y","EPOCH":"2025-11-25T00:33:01.401696","MEAN_MOTION":15.27583663,"ECCENTRICITY":0.0001087,"INCLINATION":42.9989,"RA_OF_ASC_NODE":203.774,"ARG_OF_PERICENTER":269.8508,"MEAN_ANOMALY":90.2219,"EPHEMERIS_TYPE":0,"CLASSIFICATION_TYPE":"U","NORAD_CAT_ID":59944,"ELEMENT_SET_NO":999,"REV_AT_EPOCH":8456,"BSTAR":3.8858e-5,"MEAN_MOTION_DOT":8.08e-6,"MEAN_MOTION_DDOT":0},{"OBJECT_NAME":"STARLINK-11145 [DTC]","OBJECT_ID":"2024-107A","EPOCH":"2025-11-24T15:32:25.330560","MEAN_MOTION":15.69711636,"ECCENTRICITY":0.00011555,"INCLINATION":53.1591,"RA_OF_ASC_NODE":49.3986,"ARG_OF_PERICENTER":98.322,"MEAN_ANOMALY":261.7929,"EPHEMERIS_TYPE":0,"CLASSIFICATION_TYPE":"U","NORAD_CAT_ID":59945,"ELEMENT_SET_NO":999,"REV_AT_EPOCH":8564,"BSTAR":8.362923e-6,"MEAN_MOTION_DOT":4.25e-6,"MEAN_MOTION_DDOT":0},{"OBJECT_NAME":"STARLINK-11113 [DTC]","OBJECT_ID":"2024-107C","EPOCH":"2025-11-24T15:39:20.396160","MEAN_MOTION":15.69709641,"ECCENTRICITY":0.00010707,"INCLINATION":53.1582,"RA_OF_ASC_NODE":48.6852,"ARG_OF_PERICENTER":94.0938,"MEAN_ANOMALY":266.0203,"EPHEMERIS_TYPE":0,"CLASSIFICATION_TYPE":"U","NORAD_CAT_ID":59947,"ELEMENT_SET_NO":999,"REV_AT_EPOCH":8565,"BSTAR":6.717263e-6,"MEAN_MOTION_DOT":2.25e-6,"MEAN_MOTION_DDOT":0},{"OBJECT_NAME":"STARLINK-11123 [DTC]","OBJECT_ID":"2024-107D","EPOCH":"2025-11-24T22:56:43.024128","MEAN_MOTION":15.69711118,"ECCENTRICITY":7.84e-5,"INCLINATION":53.1591,"RA_OF_ASC_NODE":47.7636,"ARG_OF_PERICENTER":57.781,"MEAN_ANOMALY":302.3284,"EPHEMERIS_TYPE":0,"CLASSIFICATION_TYPE":"U","NORAD_CAT_ID":59948,"ELEMENT_SET_NO":999,"REV_AT_EPOCH":8575,"BSTAR":-4.5146e-6,"MEAN_MOTION_DOT":-1.135e-5,"MEAN_MOTION_DDOT":0},{"OBJECT_NAME":"STARLINK-11138 [DTC]","OBJECT_ID":"2024-107E","EPOCH":"2025-11-24T14:50:01.176288","MEAN_MOTION":15.69736911,"ECCENTRICITY":0.00021118,"INCLINATION":53.1564,"RA_OF_ASC_NODE":49.1901,"ARG_OF_PERICENTER":149.1127,"MEAN_ANOMALY":211.0016,"EPHEMERIS_TYPE":0,"CLASSIFICATION_TYPE":"U","NORAD_CAT_ID":59949,"ELEMENT_SET_NO":999,"REV_AT_EPOCH":8570,"BSTAR":-5.979913e-6,"MEAN_MOTION_DOT":-1.316e-5,"MEAN_MOTION_DDOT":0},{"OBJECT_NAME":"STARLINK-11130 [DTC]","OBJECT_ID":"2024-107F","EPOCH":"2025-11-24T22:49:39.405792","MEAN_MOTION":15.69709261,"ECCENTRICITY":0.0001443,"INCLINATION":53.1601,"RA_OF_ASC_NODE":47.7335,"ARG_OF_PERICENTER":81.8193,"MEAN_ANOMALY":278.2989,"EPHEMERIS_TYPE":0,"CLASSIFICATION_TYPE":"U","NORAD_CAT_ID":59950,"ELEMENT_SET_NO":999,"REV_AT_EPOCH":8569,"BSTAR":4.5451e-6,"MEAN_MOTION_DOT":-3.9e-7,"MEAN_MOTION_DDOT":0},{"OBJECT_NAME":"STARLINK-11124 [DTC]","OBJECT_ID":"2024-107H","EPOCH":"2025-11-24T11:53:44.301696","MEAN_MOTION":15.6972139,"ECCENTRICITY":0.00014394,"INCLINATION":53.1592,"RA_OF_ASC_NODE":49.86,"ARG_OF_PERICENTER":98.9587,"MEAN_ANOMALY":261.1594,"EPHEMERIS_TYPE":0,"CLASSIFICATION_TYPE":"U","NORAD_CAT_ID":59952,"ELEMENT_SET_NO":999,"REV_AT_EPOCH":8569,"BSTAR":-1.8016001e-5,"MEAN_MOTION_DOT":-2.772e-5,"MEAN_MOTION_DDOT":0},{"OBJECT_NAME":"STARLINK-11143 [DTC]","OBJECT_ID":"2024-107J","EPOCH":"2025-11-24T11:39:36.500832","MEAN_MOTION":15.6971687,"ECCENTRICITY":0.00013879,"INCLINATION":53.1587,"RA_OF_ASC_NODE":49.7993,"ARG_OF_PERICENTER":52.9067,"MEAN_ANOMALY":307.2078,"EPHEMERIS_TYPE":0,"CLASSIFICATION_TYPE":"U","NORAD_CAT_ID":59953,"ELEMENT_SET_NO":999,"REV_AT_EPOCH":8562,"BSTAR":1.9521647e-5,"MEAN_MOTION_DOT":1.777e-5,"MEAN_MOTION_DDOT":0}]
