STARLINK-31962          
1 59936U 24106Q   25328.96910653  .00003337  00000+0  13069-3 0  9991
2 59936  42.9982 204.2305 0000736 246.0506 114.0268 15.27591765 84500
STARLINK-31879          
1 59937U 24106R   25329.04478095  .00000569  00000+0  30178-4 0  9996
2 59937  43.0013 203.9390 0000979 281.1553  78.9188 15.27580697 84566
STARLINK-31876          
1 59938U 24106S   25329.00495104  .00005166  00000+0  19703-3 0  9991
2 59938  42.9975 203.6371 0000793 299.2379  60.8394 15.27594478 84525
STARLINK-31955          
1 59939U 24106T   25329.06261388  .00001284  00000+0  56180-4 0  9991
2 59939  43.0027 203.2074 0002590 241.2278 118.8314 15.27590385 84567
STARLINK-31946          
1 59940U 24106U   25329.04091759  .00000311  00000+0  20826-4 0  9992
2 59940  43.0024 203.9093 0000920 286.9388  73.1362 15.27584111 75147
STARLINK-31948          
1 59941U 24106V   25329.03499207 -.00002032  00000+0 -64397-4 0  9997
2 59941  43.0020 200.3048 0001944 265.8588  94.2042 15.27553104 84552
STARLINK-31900          
1 59942U 24106W   25329.05241142  .00004236  00000+0  16350-3 0  9994
2 59942  43.0021 203.1409 0001203 299.5105  60.5626 15.27554756 84528
STARLINK-31973          
1 59943U 24106X   25329.02678655  .00000301  00000+0  20451-4 0  9992
2 59943  43.0003 203.8074 0000896 279.0808  80.9942 15.27583800 84512
STARLINK-31966          
1 59944U 24106Y   25329.02293289  .00000808  00000+0  38858-4 0  9991
2 59944  42.9989 203.7740 0001087 269.8508  90.2219 15.27583663 84563
STARLINK-11145 [DTC]    
1 59945U 24107A   25328.64751540  .00000425  00000+0  83629-5 0  9991
2 59945  53.1591  49.3986 0001155  98.3220 261.7929 15.69711636 85647
STARLINK-11113 [DTC]    
1 59947U 24107C   25328.65231940  .00000225  00000+0  67173-5 0  9995
2 59947  53.1582  48.6852 0001070  94.0938 266.0203 15.69709641 85655
STARLINK-11123 [DTC]    
1 59948U 24107D   25328.95605352 -.00001135  00000+0 -45146-5 0  9990
2 59948  53.1591  47.7636 0000784  57.7810 302.3284 15.69711118 85758
STARLINK-11138 [DTC]    
1 59949U 24107E   25328.61806917 -.00001316  00000+0 -59799-5 0  9994
2 59949  53.1564  49.1901 0002111 149.1127 211.0016 15.69736911 85705
STARLINK-11130 [DTC]    
1 59950U 24107F   25328.95115053 -.00000039  00000+0  45451-5 0  9997
2 59950  53.1601  47.7335 0001443  81.8193 278.2989 15.69709261 85696
STARLINK-11124 [DTC]    
1 59952U 24107H   25328.49565164 -.00002772  00000+0 -18016-4 0  9993
2 59952  53.1592  49.8600 0001439  98.9587 261.1594 15.69721390 85696
STARLINK-11143 [DTC]    
1 59953U 24107J   25328.48583913  .00001777  00000+0  19522-4 0  9990
2 59953  53.1587  49.7993 0001387  52.9067 307.2078 15.69716870 85629
